H1 CPF  1  DLR 2021 12 06 10  8402 technosat            
H2  1704205 6203    42829 2021 12 06 00 00 00 2021 12 13 00 00 00    60 1 1  0 0 0
H9
10 0 59556  57600.000000  0       2909640.452       6337002.783        249566.488
10 0 59556  57660.000000  0       2991100.314       6300679.019       -200042.790
10 0 59556  57720.000000  0       3059533.756       6237178.576       -648804.229
10 0 59556  57780.000000  0       3114416.709       6146885.310      -1094815.377
10 0 59556  57840.000000  0       3155286.498       6030301.138      -1536185.608
10 0 59556  57900.000000  0       3181744.830       5888043.333      -1971044.343
10 0 59556  57960.000000  0       3193460.475       5720841.241      -2397549.190
10 0 59556  58020.000000  0       3190171.603       5529532.449      -2813893.939
10 0 59556  58080.000000  0       3171687.744       5315058.435      -3218316.376
10 0 59556  58140.000000  0       3137891.367       5078459.709      -3609105.832
10 0 59556  58200.000000  0       3088739.114       4820870.564      -3984610.419
10 0 59556  58260.000000  0       3024262.669       4543513.473      -4343244.014
10 0 59556  58320.000000  0       2944569.222       4247693.070      -4683492.947
10 0 59556  58380.000000  0       2849841.553       3934789.799      -5003922.280
10 0 59556  58440.000000  0       2740337.800       3606253.297      -5303181.719
10 0 59556  58500.000000  0       2616390.854       3263595.502      -5580011.185
10 0 59556  58560.000000  0       2478407.371       2908383.518      -5833245.926
10 0 59556  58620.000000  0       2326866.400       2542232.321      -6061821.210
10 0 59556  58680.000000  0       2162317.666       2166797.299      -6264776.564
10 0 59556  58740.000000  0       1985379.540       1783766.719      -6441259.518
10 0 59556  58800.000000  0       1796736.727       1394854.142      -6590528.949
10 0 59556  58860.000000  0       1597137.631       1001790.764      -6711957.987
10 0 59556  58920.000000  0       1387391.379        606317.785      -6805036.491
10 0 59556  58980.000000  0       1168364.513        210178.760      -6869373.099
10 0 59556  59040.000000  0        940977.381       -184888.069      -6904696.744
10 0 59556  59100.000000  0        706200.287       -577157.334      -6910857.648
10 0 59556  59160.000000  0        465049.407       -964923.951      -6887827.877
10 0 59556  59220.000000  0        218582.472      -1346510.408      -6835701.460
10 0 59556  59280.000000  0        -32105.756      -1720273.874      -6754694.061
10 0 59556  59340.000000  0       -285888.270      -2084613.184      -6645142.309
10 0 59556  59400.000000  0       -541610.852      -2437975.732      -6507502.602
10 0 59556  59460.000000  0       -798097.263      -2778864.140      -6342349.330
10 0 59556  59520.000000  0      -1054154.554      -3105842.593      -6150372.635
10 0 59556  59580.000000  0      -1308578.523      -3417542.920      -5932375.796
10 0 59556  59640.000000  0      -1560159.319      -3712670.409      -5689272.150
10 0 59556  59700.000000  0      -1807687.143      -3990009.340      -5422081.578
10 0 59556  59760.000000  0      -2049958.062      -4248428.229      -5131926.515
10 0 59556  59820.000000  0      -2285779.889      -4486884.691      -4820027.459
10 0 59556  59880.000000  0      -2513978.081      -4704429.881      -4487698.028
10 0 59556  59940.000000  0      -2733401.610      -4900212.511      -4136339.580
10 0 59556  60000.000000  0      -2942928.788      -5073482.411      -3767435.444
10 0 59556  60060.000000  0      -3141473.022      -5223593.664      -3382544.778
10 0 59556  60120.000000  0      -3327988.479      -5350007.265      -2983296.037
10 0 59556  60180.000000  0      -3501475.637      -5452293.269      -2571380.100
10 0 59556  60240.000000  0      -3660986.654      -5530132.437      -2148543.055
10 0 59556  60300.000000  0      -3805630.548      -5583317.339      -1716578.692
10 0 59556  60360.000000  0      -3934578.120      -5611752.912      -1277320.726
10 0 59556  60420.000000  0      -4047066.597      -5615456.473       -832634.810
10 0 59556  60480.000000  0      -4142403.966      -5594557.161       -384410.358
10 0 59556  60540.000000  0      -4219972.973      -5549294.835         65447.728
10 0 59556  60600.000000  0      -4279234.790      -5480018.435        515027.436
10 0 59556  60660.000000  0      -4319732.285      -5387183.788        962418.083
10 0 59556  60720.000000  0      -4341092.889      -5271350.870       1405718.744
10 0 59556  60780.000000  0      -4343031.019      -5133180.537       1843046.613
10 0 59556  60840.000000  0      -4325350.059      -4973430.795       2272545.221
10 0 59556  60900.000000  0      -4287943.922      -4792952.614       2692392.514
10 0 59556  60960.000000  0      -4230798.157      -4592685.331       3100808.737
10 0 59556  61020.000000  0      -4153990.621      -4373651.656       3496064.112
10 0 59556  61080.000000  0      -4057691.668      -4136952.312       3876486.263
10 0 59556  61140.000000  0      -3942163.878      -3883760.317       4240467.342
10 0 59556  61200.000000  0      -3807761.320      -3615314.942       4586470.792
10 0 59556  61260.000000  0      -3654928.387      -3332915.455       4913037.693
10 0 59556  61320.000000  0      -3484198.246      -3037914.689       5218792.754
10 0 59556  61380.000000  0      -3296190.827      -2731712.416       5502449.931
10 0 59556  61440.000000  0      -3091610.440      -2415748.632       5762817.614
10 0 59556  61500.000000  0      -2871242.993      -2091496.717       5998803.437
10 0 59556  61560.000000  0      -2635952.840      -1760456.488       6209418.639
10 0 59556  61620.000000  0      -2386679.289      -1424147.202       6393782.001
10 0 59556  61680.000000  0      -2124432.699      -1084100.501       6551123.327
10 0 59556  61740.000000  0      -1850290.205       -741853.378       6680786.337
10 0 59556  61800.000000  0      -1565391.207       -398941.292       6782231.007
10 0 59556  61860.000000  0      -1270932.678        -56891.452       6855035.542
10 0 59556  61920.000000  0       -968164.198        282783.878       6898898.017
10 0 59556  61980.000000  0       -658382.682        618593.995       6913637.523
10 0 59556  62040.000000  0       -342926.871        949076.215       6899194.812
10 0 59556  62100.000000  0        -23171.623       1272802.152       6855632.493
10 0 59556  62160.000000  0        299478.009       1588383.826       6783134.793
10 0 59556  62220.000000  0        623592.902       1894479.574       6682006.769
10 0 59556  62280.000000  0        947726.090       2189799.646       6552673.065
10 0 59556  62340.000000  0       1270419.122       2473111.577       6395676.272
10 0 59556  62400.000000  0       1590208.532       2743245.284       6211674.827
10 0 59556  62460.000000  0       1905632.384       2999097.927       6001440.502
10 0 59556  62520.000000  0       2215236.915       3239638.476       5765855.412
10 0 59556  62580.000000  0       2517583.222       3463911.950       5505908.585
10 0 59556  62640.000000  0       2811254.010       3671043.340       5222692.040
10 0 59556  62700.000000  0       3094860.271       3860241.125       4917396.329
10 0 59556  62760.000000  0       3367047.820       4030800.320       4591305.724
10 0 59556  62820.000000  0       3626503.760       4182105.215       4245793.116
10 0 59556  62880.000000  0       3871962.834       4313631.790       3882314.514
10 0 59556  62940.000000  0       4102213.856       4424949.796       3502403.178
10 0 59556  63000.000000  0       4316106.021       4515724.226       3107663.009
10 0 59556  63060.000000  0       4512554.546       4585716.190       2699761.704
10 0 59556  63120.000000  0       4690546.175       4634783.574       2280423.871
10 0 59556  63180.000000  0       4849144.517       4662881.220       1851423.712
10 0 59556  63240.000000  0       4987495.072       4670060.550       1414577.462
10 0 59556  63300.000000  0       5104829.933       4656468.740        971735.559
10 0 59556  63360.000000  0       5200471.997       4622347.432        524774.570
10 0 59556  63420.000000  0       5273838.712       4568030.956         75588.999
10 0 59556  63480.000000  0       5324445.380       4493944.072       -373916.929
10 0 59556  63540.000000  0       5351908.019       4400599.316       -821837.524
10 0 59556  63600.000000  0       5355945.762       4288593.928      -1266273.920
10 0 59556  63660.000000  0       5336382.759       4158606.348      -1705342.325
10 0 59556  63720.000000  0       5293149.584       4011392.325      -2137182.200
10 0 59556  63780.000000  0       5226284.093       3847780.669      -2559964.313
10 0 59556  63840.000000  0       5135931.757       3668668.702      -2971898.611
10 0 59556  63900.000000  0       5022345.503       3475017.408      -3371241.909
10 0 59556  63960.000000  0       4885885.017       3267846.345      -3756305.363
10 0 59556  64020.000000  0       4727015.520       3048228.283      -4125461.682
10 0 59556  64080.000000  0       4546306.044       2817283.574      -4477152.012
10 0 59556  64140.000000  0       4344427.237       2576174.365      -4809892.420
10 0 59556  64200.000000  0       4122148.695       2326098.724      -5122280.041
10 0 59556  64260.000000  0       3880335.855       2068284.643      -5412998.856
10 0 59556  64320.000000  0       3619946.441       1803983.977      -5680825.058
10 0 59556  64380.000000  0       3342026.488       1534466.384      -5924632.031
10 0 59556  64440.000000  0       3047705.943       1261013.202      -6143394.884
10 0 59556  64500.000000  0       2738193.927        984911.360      -6336194.480
10 0 59556  64560.000000  0       2414773.673        707447.375      -6502221.046
10 0 59556  64620.000000  0       2078797.141        429901.418      -6640777.313
10 0 59556  64680.000000  0       1731679.427        153541.500      -6751281.238
10 0 59556  64740.000000  0       1374892.842       -120382.268      -6833268.414
99
